<?xml version="1.0" encoding="UTF-8"?>
<gpx version="1.1" creator="CustomScript" xmlns="http://www.topografix.com/GPX/1/1">
  <metadata>
    <name>감악산 - 황방리구간</name>
  </metadata>
  <trk>
    <name>감악산 - 황방리구간</name>
    <trkseg>
      <trkpt lon="197380.85012594424" lat="593486.6798546463"></trkpt>
      <trkpt lon="197392.0061000008" lat="593484.4834000021"></trkpt>
      <trkpt lon="197399.01669999957" lat="593483.0963000022"></trkpt>
      <trkpt lon="197409.7377000004" lat="593480.951700002"></trkpt>
      <trkpt lon="197419.24170000013" lat="593475.4826000016"></trkpt>
      <trkpt lon="197431.1662000008" lat="593469.062400002"></trkpt>
      <trkpt lon="197444.86030000076" lat="593461.3630000036"></trkpt>
      <trkpt lon="197449.19330000225" lat="593459.1524"></trkpt>
      <trkpt lon="197453.10170000046" lat="593457.3868000004"></trkpt>
      <trkpt lon="197459.04050000012" lat="593455.2585000005"></trkpt>
      <trkpt lon="197464.5923000006" lat="593454.0195000041"></trkpt>
      <trkpt lon="197468.07320000045" lat="593453.5763000008"></trkpt>
      <trkpt lon="197472.31129999924" lat="593453.3034000043"></trkpt>
      <trkpt lon="197480.09379999992" lat="593453.3538000025"></trkpt>
      <trkpt lon="197486.5507000005" lat="593454.0226000026"></trkpt>
      <trkpt lon="197492.4843000006" lat="593455.2515000012"></trkpt>
      <trkpt lon="197495.43250000104" lat="593456.1428000014"></trkpt>
      <trkpt lon="197500.1634000009" lat="593458.3048000019"></trkpt>
      <trkpt lon="197504.1623000009" lat="593461.5826999992"></trkpt>
      <trkpt lon="197507.07089999877" lat="593465.1112000011"></trkpt>
      <trkpt lon="197509.7338000005" lat="593468.9875000026"></trkpt>
      <trkpt lon="197515.73129999917" lat="593478.4712000024"></trkpt>
      <trkpt lon="197519.6121000005" lat="593483.5015000012"></trkpt>
      <trkpt lon="197522.81209999975" lat="593486.2376000006"></trkpt>
      <trkpt lon="197525.89760000166" lat="593487.4293000009"></trkpt>
      <trkpt lon="197530.1157000009" lat="593486.7561000008"></trkpt>
      <trkpt lon="197534.6213999996" lat="593484.1987000015"></trkpt>
      <trkpt lon="197541.13530000113" lat="593479.1215000022"></trkpt>
      <trkpt lon="197543.90350000188" lat="593477.169400001"></trkpt>
      <trkpt lon="197546.66550000105" lat="593475.6381000001"></trkpt>
      <trkpt lon="197549.63260000106" lat="593474.5543000046"></trkpt>
      <trkpt lon="197554.4391999999" lat="593473.3961999994"></trkpt>
      <trkpt lon="197559.66229999997" lat="593472.7596000005"></trkpt>
      <trkpt lon="197565.3225000007" lat="593472.6416999977"></trkpt>
      <trkpt lon="197571.4628999997" lat="593473.041500004"></trkpt>
      <trkpt lon="197577.88840000052" lat="593473.9188000001"></trkpt>
      <trkpt lon="197584.97220000066" lat="593475.3002000023"></trkpt>
      <trkpt lon="197594.30970000103" lat="593477.5790000036"></trkpt>
      <trkpt lon="197601.40369999968" lat="593479.6253000014"></trkpt>
      <trkpt lon="197608.40409999993" lat="593482.5003999993"></trkpt>
      <trkpt lon="197621.16020000167" lat="593488.8092"></trkpt>
      <trkpt lon="197626.30530000012" lat="593491.1486000009"></trkpt>
      <trkpt lon="197635.84310000017" lat="593494.6556000002"></trkpt>
      <trkpt lon="197638.5083999997" lat="593495.7423"></trkpt>
      <trkpt lon="197649.20800000057" lat="593500.1045999993"></trkpt>
      <trkpt lon="197654.69340000115" lat="593502.0078999996"></trkpt>
      <trkpt lon="197658.98429999873" lat="593503.0672000013"></trkpt>
      <trkpt lon="197662.49010000192" lat="593503.4124999996"></trkpt>
      <trkpt lon="197666.3947999999" lat="593502.5453000013"></trkpt>
      <trkpt lon="197668.7226999998" lat="593500.4703000002"></trkpt>
      <trkpt lon="197669.9762000013" lat="593497.3883000016"></trkpt>
      <trkpt lon="197670.92330000084" lat="593492.7284000013"></trkpt>
      <trkpt lon="197671.5719000008" lat="593486.7921999991"></trkpt>
      <trkpt lon="197672.1079000011" lat="593480.5641000029"></trkpt>
      <trkpt lon="197672.44170000125" lat="593472.8981000017"></trkpt>
      <trkpt lon="197672.0826000003" lat="593459.0080000013"></trkpt>
      <trkpt lon="197672.09929999989" lat="593453.7298000008"></trkpt>
      <trkpt lon="197672.39979999978" lat="593449.2338999994"></trkpt>
      <trkpt lon="197673.190200001" lat="593443.8273000009"></trkpt>
      <trkpt lon="197674.06670000032" lat="593440.4703000002"></trkpt>
      <trkpt lon="197675.3180999998" lat="593436.9998000022"></trkpt>
      <trkpt lon="197676.61690000072" lat="593433.9502000008"></trkpt>
      <trkpt lon="197680.9905000003" lat="593424.7479000017"></trkpt>
      <trkpt lon="197683.08609999996" lat="593419.3596000001"></trkpt>
      <trkpt lon="197685.0058000004" lat="593413.0229000002"></trkpt>
      <trkpt lon="197688.8713999996" lat="593398.1665000021"></trkpt>
      <trkpt lon="197691.1138000004" lat="593391.3162999991"></trkpt>
      <trkpt lon="197693.67870000005" lat="593385.5536000021"></trkpt>
      <trkpt lon="197696.78830000106" lat="593380.4624000024"></trkpt>
      <trkpt lon="197700.74720000103" lat="593375.329400003"></trkpt>
      <trkpt lon="197709.94120000117" lat="593364.8668999989"></trkpt>
      <trkpt lon="197713.72210000083" lat="593360.1821999997"></trkpt>
      <trkpt lon="197719.12789999973" lat="593352.1816000026"></trkpt>
      <trkpt lon="197724.8543999996" lat="593342.9393000007"></trkpt>
      <trkpt lon="197730.43570000213" lat="593332.9859000016"></trkpt>
      <trkpt lon="197735.17060000077" lat="593323.3924000002"></trkpt>
      <trkpt lon="197739.08140000142" lat="593314.1130999997"></trkpt>
      <trkpt lon="197742.17700000107" lat="593305.1265999991"></trkpt>
      <trkpt lon="197743.6864999989" lat="593299.7063000035"></trkpt>
      <trkpt lon="197744.82430000138" lat="593294.636900004"></trkpt>
      <trkpt lon="197745.47550000157" lat="593290.203900002"></trkpt>
      <trkpt lon="197745.83320000116" lat="593285.4721000046"></trkpt>
      <trkpt lon="197745.89800000004" lat="593280.0064000022"></trkpt>
      <trkpt lon="197745.63709999993" lat="593273.9144000001"></trkpt>
      <trkpt lon="197745.14790000021" lat="593267.6107999999"></trkpt>
      <trkpt lon="197743.14140000008" lat="593248.3394000009"></trkpt>
      <trkpt lon="197742.76900000125" lat="593242.4245999996"></trkpt>
      <trkpt lon="197742.66710000113" lat="593237.1530000027"></trkpt>
      <trkpt lon="197742.84560000058" lat="593232.0674000029"></trkpt>
      <trkpt lon="197743.3206000002" lat="593227.3269000016"></trkpt>
      <trkpt lon="197744.66100000124" lat="593218.8626000024"></trkpt>
      <trkpt lon="197746.28679999989" lat="593210.5600000024"></trkpt>
      <trkpt lon="197748.8214999996" lat="593200.059700001"></trkpt>
      <trkpt lon="197751.80169999972" lat="593190.0346000008"></trkpt>
      <trkpt lon="197755.1900000004" lat="593180.5832999982"></trkpt>
      <trkpt lon="197759.67370000016" lat="593169.6669999994"></trkpt>
      <trkpt lon="197764.04890000075" lat="593160.3248000033"></trkpt>
      <trkpt lon="197768.56600000057" lat="593151.9455999993"></trkpt>
      <trkpt lon="197773.27309999987" lat="593144.4408999998"></trkpt>
      <trkpt lon="197778.19260000065" lat="593137.775700001"></trkpt>
      <trkpt lon="197782.42009999976" lat="593132.923700003"></trkpt>
      <trkpt lon="197787.1431" lat="593128.4086000007"></trkpt>
      <trkpt lon="197792.67850000225" lat="593123.9204999991"></trkpt>
      <trkpt lon="197799.18149999995" lat="593119.343700001"></trkpt>
      <trkpt lon="197806.94739999995" lat="593114.4547000024"></trkpt>
      <trkpt lon="197826.58860000223" lat="593102.789400002"></trkpt>
      <trkpt lon="197849.53640000056" lat="593088.0012000017"></trkpt>
      <trkpt lon="197890.8339999998" lat="593062.4222999997"></trkpt>
      <trkpt lon="197912.90340000112" lat="593048.4881999996"></trkpt>
      <trkpt lon="197927.5635000011" lat="593038.9664000012"></trkpt>
      <trkpt lon="197941.7193" lat="593029.4449000023"></trkpt>
      <trkpt lon="197949.06329999957" lat="593024.0971000008"></trkpt>
      <trkpt lon="197955.31350000016" lat="593019.1916000023"></trkpt>
      <trkpt lon="197960.33960000053" lat="593014.9848000016"></trkpt>
      <trkpt lon="197973.49289999995" lat="593003.4761999995"></trkpt>
      <trkpt lon="197979.40280000027" lat="592998.5629000012"></trkpt>
      <trkpt lon="197986.07020000182" lat="592993.3955999985"></trkpt>
      <trkpt lon="197993.41800000053" lat="592987.9947000016"></trkpt>
      <trkpt lon="198007.1942999987" lat="592978.4340000022"></trkpt>
      <trkpt lon="198037.65470000077" lat="592958.1189000029"></trkpt>
      <trkpt lon="198070.3824000014" lat="592935.6385000013"></trkpt>
      <trkpt lon="198080.9628000008" lat="592928.6086000018"></trkpt>
      <trkpt lon="198091.50910000037" lat="592921.8656000011"></trkpt>
      <trkpt lon="198095.7306000013" lat="592918.9011000041"></trkpt>
      <trkpt lon="198104.9923000019" lat="592911.5264000017"></trkpt>
      <trkpt lon="198123.02120000124" lat="592895.9511999991"></trkpt>
      <trkpt lon="198128.62410000153" lat="592891.3045000006"></trkpt>
      <trkpt lon="198134.83630000055" lat="592886.4329000022"></trkpt>
      <trkpt lon="198140.2638000017" lat="592882.5976000018"></trkpt>
      <trkpt lon="198145.00609999988" lat="592879.7115000002"></trkpt>
      <trkpt lon="198149.27290000115" lat="592877.6294"></trkpt>
      <trkpt lon="198153.1168999998" lat="592876.3258999996"></trkpt>
      <trkpt lon="198156.56539999973" lat="592875.7920000013"></trkpt>
      <trkpt lon="198160.67270000186" lat="592876.3776000012"></trkpt>
      <trkpt lon="198164.09729999956" lat="592878.2528000027"></trkpt>
      <trkpt lon="198165.96630000044" lat="592880.3759000041"></trkpt>
    </trkseg>
  </trk>
</gpx>